YAMAL 401               
1 40345U 14082A   26192.86793814 -.00000223  00000+0  00000+0 0  9993
2 40345   0.0368 210.1789 0000276  89.4116  32.5659  1.00268336 42169
ASTRA 2G                
1 40364U 14089A   26193.28335890  .00000152  00000+0  00000+0 0  9994
2 40364   0.0485  19.1198 0004215  58.9819 342.3026  1.00273789 42213
FENGYUN 2G              
1 40367U 14090A   26192.94955483 -.00000300  00000+0  00000+0 0  9993
2 40367   5.6976  72.5145 0004315 151.9124 146.5618  1.00261523 42248
MUOS-3                  
1 40374U 15002A   26193.31989030 -.00000131  00000+0  00000+0 0  9994
2 40374   4.5679  43.6192 0053332 177.3762 168.8417  1.00269897 41838
INMARSAT 5-F2           
1 40384U 15005A   26193.33656072 -.00000284  00000+0  00000+0 0  9996
2 40384   0.0036  96.0164 0000439   3.9900 256.3803  1.00271788 41245
ABS-3A                  
1 40424U 15010A   26193.31433816  .00000000  00000+0  00000+0 0  9999
2 40424   0.0444  73.3789 0001586 348.2435 338.7635  1.00269913 41623
EUTELSAT 115 WEST B     
1 40425U 15010B   26193.23378414 -.00000022  00000+0  00000+0 0  9998
2 40425   0.0069 164.0275 0000372 315.8664 139.4965  1.00267192 41631
EXPRESS-AM7             
1 40505U 15012A   26193.21443546  .00000000  00000+0  00000+0 0  9991
2 40505   0.0273  44.3125 0002671  77.1009 285.8963  1.00268914 41251
BEIDOU-3S IGSO-1S       
1 40549U 15019A   26183.80025122 -.00000190  00000+0  00000+0 0  9997
2 40549  49.1798 295.2769 0076860 219.1125 144.2493  1.00680073 41232
THOR 7                  
1 40613U 15022A   26193.31433816 -.00000007  00000+0  00000+0 0  9990
2 40613   0.0146  94.9206 0002285  19.2479 288.5367  1.00271107 41065
TURKMENALEM52E/MONACOSAT
1 40617U 15023A   26193.21686214  .00000106  00000+0  00000+0 0  9995
2 40617   0.0231  79.7684 0002570  40.4734 299.9487  1.00269892 41092
DIRECTV 15              
1 40663U 15026A   26193.23690569 -.00000100  00000+0  00000+0 0  9994
2 40663   0.0202  72.4846 0000197 202.5045 357.5578  1.00271579 40715
SKY MEXICO-1            
1 40664U 15026B   26193.19088875 -.00000232  00000+0  00000+0 0  9997
2 40664   0.0147  11.0838 0002312 124.1290 144.7955  1.00270818 40705
METEOSAT-11 (MSG-4)     
1 40732U 15034A   26193.20836876  .00000061  00000+0  00000+0 0  9995
2 40732   3.2620  70.9534 0002230 353.1646 310.2476  1.00270928  7463
STAR ONE C4             
1 40733U 15034B   26193.05009144 -.00000262  00000+0  00000+0 0  9993
2 40733   0.0242 343.3824 0001316 106.3950 148.2056  1.00270177 40262
WGS F7 (USA 263)        
1 40746U 15036A   26193.16987134  .00000000  00000+0  00000+0 0  9994
2 40746   0.0462  70.8056 0000732 131.6881 323.7127  1.00272089 40122
INTELSAT 34 (IS-34)     
1 40874U 15039A   26193.12428444 -.00000283  00000+0  00000+0 0  9993
2 40874   0.0109   7.8780 0000395 341.4074 289.9886  1.00271628 39880
EUTELSAT 8 WEST B       
1 40875U 15039B   26193.31433816 -.00000064  00000+0  00000+0 0  9991
2 40875   0.0656 342.5431 0003881 122.6583 290.1666  1.00271684 39902
GSAT-6                  
1 40880U 15041A   26193.14558608 -.00000160  00000+0  00000+0 0  9995
2 40880   1.9818  82.2851 0003043  25.1420 317.5007  1.00273655 39845
INMARSAT 5-F3           
1 40882U 15042A   26192.74305605  .00000055  00000+0  00000+0 0  9992
2 40882   0.0184  33.2673 0000474 145.0710 198.3932  1.00272607 39815
MUOS-4                  
1 40887U 15044A   26193.14747042 -.00000093  00000+0  00000+0 0  9992
2 40887   4.3750  42.3726 0056551   3.3502  12.3959  1.00271127 39818
TJS-1                   
1 40892U 15046A   26193.33586385 -.00000154  00000+0  00000+0 0  9990
2 40892   0.3856  84.7648 0004934  17.5653 103.8318  1.00273001 39821
EXPRESS-AM8             
1 40895U 15048A   26193.27503885 -.00000110  00000+0  00000+0 0  9994
2 40895   0.0154 334.1497 0000375 342.2629  58.7648  1.00269895 39596
BEIDOU-3S IGSO-2S       
1 40938U 15053A   26192.65474799 -.00000091  00000+0  00000+0 0  9998
2 40938  49.1834 258.4907 0066347 193.2506 167.1648  1.00253704 39605
SKY MUSTER 1 (NBN1A)    
1 40940U 15054A   26193.30563234  .00000000  00000+0  00000+0 0  9997
2 40940   0.0182  12.8585 0001565 108.0718  59.5438  1.00270693 39511
ARSAT 2                 
1 40941U 15054B   26193.27295822 -.00000223  00000+0  00000+0 0  9997
2 40941   0.0423 284.7789 0001827 180.5934 202.0623  1.00270876 39550
MORELOS 3               
1 40946U 15056A   26193.30739295 -.00000043  00000+0  00000+0 0  9995
2 40946   3.2075  15.7121 0000343 122.9467 149.1095  1.00272511 39538
APSTAR-9                
1 40982U 15059A   26193.30597900 -.00000264  00000+0  00000+0 0  9998
2 40982   0.0188  33.1947 0003017 154.7901 354.3733  1.00272691 39375
TURKSAT 4B              
1 40984U 15060A   26193.14517123  .00000118  00000+0  00000+0 0  9990
2 40984   0.0177  32.6041 0002349  87.0173 272.6403  1.00271236 39347
ZHONGXING-2C            
1 41021U 15063A   26193.11275088 -.00000321  00000+0  00000+0 0  9991
2 41021   0.3343  88.8009 0007967 100.4519 244.7800  1.00273232 39226
GSAT-15                 
1 41028U 15065A   26193.14558608  .00000000  00000+0  00000+0 0  9998
2 41028   0.0230  46.4211 0003549  46.1893 343.3564  1.00269124 39041
BADR-7 (ARABSAT-6B)     
1 41029U 15065B   26193.21166212  .00000147  00000+0  00000+0 0  9995
2 41029   0.0064  86.1868 0004826 118.0553 188.0447  1.00272524 39016
