OBJECT_NAME,OBJECT_ID,EPOCH,MEAN_MOTION,ECCENTRICITY,INCLINATION,RA_OF_ASC_NODE,ARG_OF_PERICENTER,MEAN_ANOMALY,EPHEMERIS_TYPE,CLASSIFICATION_TYPE,NORAD_CAT_ID,ELEMENT_SET_NO,REV_AT_EPOCH,BSTAR,MEAN_MOTION_DOT,MEAN_MOTION_DDOT
YAMAL 401,2014-082A,2026-07-11T20:49:49.855296,1.00268336,.00002768,0.0368,210.1789,89.4116,32.5659,0,U,40345,999,4216,0,-.223E-5,0
ASTRA 2G,2014-089A,2026-07-12T06:48:02.208960,1.00273789,.00042153,0.0485,19.1198,58.9819,342.3026,0,U,40364,999,4221,0,.152E-5,0
FENGYUN 2G,2014-090A,2026-07-11T22:47:21.537312,1.00261523,.00043152,5.6976,72.5145,151.9124,146.5618,0,U,40367,999,4224,0,-.3E-5,0
MUOS-3,2015-002A,2026-07-12T07:40:38.521920,1.00269897,.00533326,4.5679,43.6192,177.3762,168.8417,0,U,40374,999,4183,0,-.131E-5,0
INMARSAT 5-F2,2015-005A,2026-07-12T08:04:38.846208,1.00271788,.00004395,0.0036,96.0164,3.9900,256.3803,0,U,40384,999,4124,0,-.284E-5,0
ABS-3A,2015-010A,2026-07-12T07:32:38.817024,1.00269913,.00015866,0.0444,73.3789,348.2435,338.7635,0,U,40424,999,4162,0,0,0
EUTELSAT 115 WEST B,2015-010B,2026-07-12T05:36:38.949696,1.00267192,.00003729,0.0069,164.0275,315.8664,139.4965,0,U,40425,999,4163,0,-.22E-6,0
EXPRESS-AM7,2015-012A,2026-07-12T05:08:47.223744,1.00268914,.00026715,0.0273,44.3125,77.1009,285.8963,0,U,40505,999,4125,0,0,0
BEIDOU-3S IGSO-1S,2015-019A,2026-07-02T19:12:21.705408,1.00680073,.00768606,49.1798,295.2769,219.1125,144.2493,0,U,40549,999,4123,0,-.19E-5,0
THOR 7,2015-022A,2026-07-12T07:32:38.817024,1.00271107,.00022858,0.0146,94.9206,19.2479,288.5367,0,U,40613,999,4106,0,-.7E-7,0
TURKMENALEM52E/MONACOSAT,2015-023A,2026-07-12T05:12:16.888896,1.00269892,.00025701,0.0231,79.7684,40.4734,299.9487,0,U,40617,999,4109,0,.106E-5,0
DIRECTV 15,2015-026A,2026-07-12T05:41:08.651616,1.00271579,.00001973,0.0202,72.4846,202.5045,357.5578,0,U,40663,999,4071,0,-.1E-5,0
SKY MEXICO-1,2015-026B,2026-07-12T04:34:52.788000,1.00270818,.00023126,0.0147,11.0838,124.1290,144.7955,0,U,40664,999,4070,0,-.232E-5,0
METEOSAT-11 (MSG-4),2015-034A,2026-07-12T05:00:03.060864,1.00270928,.00022308,3.2620,70.9534,353.1646,310.2476,0,U,40732,999,746,0,.61E-6,0
STAR ONE C4,2015-034B,2026-07-12T01:12:07.900416,1.00270177,.00013169,0.0242,343.3824,106.3950,148.2056,0,U,40733,999,4026,0,-.262E-5,0
WGS F7 (USA 263),2015-036A,2026-07-12T04:04:36.883776,1.00272089,.00007321,0.0462,70.8056,131.6881,323.7127,0,U,40746,999,4012,0,0,0
INTELSAT 34 (IS-34),2015-039A,2026-07-12T02:58:58.175616,1.00271628,.00003951,0.0109,7.8780,341.4074,289.9886,0,U,40874,999,3988,0,-.283E-5,0
EUTELSAT 8 WEST B,2015-039B,2026-07-12T07:32:38.817024,1.00271684,.00038816,0.0656,342.5431,122.6583,290.1666,0,U,40875,999,3990,0,-.64E-6,0
GSAT-6,2015-041A,2026-07-12T03:29:38.637312,1.00273655,.00030434,1.9818,82.2851,25.1420,317.5007,0,U,40880,999,3984,0,-.16E-5,0
INMARSAT 5-F3,2015-042A,2026-07-11T17:50:00.042720,1.00272607,.00004741,0.0184,33.2673,145.0710,198.3932,0,U,40882,999,3981,0,.55E-6,0
MUOS-4,2015-044A,2026-07-12T03:32:21.444288,1.00271127,.00565514,4.3750,42.3726,3.3502,12.3959,0,U,40887,999,3981,0,-.93E-6,0
TJS-1,2015-046A,2026-07-12T08:03:38.636640,1.00273001,.00049343,0.3856,84.7648,17.5653,103.8318,0,U,40892,999,3982,0,-.154E-5,0
EXPRESS-AM8,2015-048A,2026-07-12T06:36:03.356640,1.00269895,.0000375,0.0154,334.1497,342.2629,58.7648,0,U,40895,999,3959,0,-.11E-5,0
BEIDOU-3S IGSO-2S,2015-053A,2026-07-11T15:42:50.226336,1.00253704,.00663477,49.1834,258.4907,193.2506,167.1648,0,U,40938,999,3960,0,-.91E-6,0
SKY MUSTER 1 (NBN1A),2015-054A,2026-07-12T07:20:06.634176,1.00270693,.00015654,0.0182,12.8585,108.0718,59.5438,0,U,40940,999,3951,0,0,0
ARSAT 2,2015-054B,2026-07-12T06:33:03.590208,1.00270876,.00018271,0.0423,284.7789,180.5934,202.0623,0,U,40941,999,3955,0,-.223E-5,0
MORELOS 3,2015-056A,2026-07-12T07:22:38.750880,1.00272511,.00003431,3.2075,15.7121,122.9467,149.1095,0,U,40946,999,3953,0,-.43E-6,0
APSTAR-9,2015-059A,2026-07-12T07:20:36.585600,1.00272691,.00030175,0.0188,33.1947,154.7901,354.3733,0,U,40982,999,3937,0,-.264E-5,0
TURKSAT 4B,2015-060A,2026-07-12T03:29:02.794272,1.00271236,.00023497,0.0177,32.6041,87.0173,272.6403,0,U,40984,999,3934,0,.118E-5,0
ZHONGXING-2C,2015-063A,2026-07-12T02:42:21.676032,1.00273232,.00079673,0.3343,88.8009,100.4519,244.7800,0,U,41021,999,3922,0,-.321E-5,0
GSAT-15,2015-065A,2026-07-12T03:29:38.637312,1.00269124,.00035496,0.0230,46.4211,46.1893,343.3564,0,U,41028,999,3904,0,0,0
BADR-7 (ARABSAT-6B),2015-065B,2026-07-12T05:04:47.607168,1.00272524,.00048263,0.0064,86.1868,118.0553,188.0447,0,U,41029,999,3901,0,.147E-5,0
